X;ID;dataSetName;archiveType;siteName;latitude;longitude;elevation;region;country;startYear;endYear
[ID1]_Mayotte_[Col1]_Mayotte_d18O;1;Mayotte;coral;Mayotte_DJFMAM; -12.65000000;  45.10000;    0.0;Indian Ocean;Kenya;  1865;1993
[ID2]_Seychelles_[Col1]_Seychelles_d18O;2;Seychelles;coral;Seychelles_DJFMAM;  -4.61666667;  55.80000;    0.0;Indian Ocean;Seychelles;  1846;1995
[ID4]_Moorea_[Col1]_Moorea_d18O;4;Moorea;coral;Moorea; -17.50000000;-149.83333;    0.0;Pacific Ocean;French Polynesia;  1852;1990
[ID10]_Rodrigues_SrCa_[Col1]_Rodrigues_SrCa;10;Rodrigues_SrCa;coral;Rodrigues Sr/Ca_DJFMAM; -19.00000000;  63.00000;    0.0;Indian Ocean;Other;  1781;2005
[ID11]_Malindi_Kenya_[Col1]_Malindi_d18O;11;Malindi_Kenya;coral;Malindi;  -3.00000000;  40.00000;    0.0;Indian Ocean;Kenya;  1801;1994
[ID13]_Mafia_[Col1]_Mafia_d18O;13;Mafia;coral;Mafia, Tanzania DJFMAM;  -8.00000000;  40.00000;    0.0;Indian Ocean;Tanzania;  1622;1998
[ID14]_Madang_[Col1]_Madang_d18O;14;Madang;coral;Madang Lagoon_DJFMAM;  -5.21666667; 145.81667;    0.0;Australasia;Papua New Guinea;  1880;1993
[ID16]_Linsley_7_[Col1]_Rarotonga_d18O;16;Linsley_7;coral;Rarotonga d18O_DJFMAM; -21.23333333;-159.83333;    0.0;Pacific Ocean;Cook Island;  1726;1996
[ID17]_Linsley_6_[Col1]_Rarotonga_SrCa;17;Linsley_6;coral;Rarotonga SrCa_DJFMAM; -21.23333333;-159.83333;    0.0;Pacific Ocean;Cook Island;  1726;1996
[ID24]_Savusavu_d18O_[Col1]_Savusavu_d18O;24;Savusavu_d18O;coral;Savusavu, Fiji d18O; -16.81666667; 179.23333;   -2.0;Pacific Ocean;Fiji;  1776;2001
[ID26]_Rabaul_SrCa_[Col1]_Rabaul_SrCa;26;Rabaul_SrCa;coral;Rabaul Sr/Ca_DJFMAM;  -4.00000000; 152.00000;    0.0;Australasia;Papua New Guinea;  1867;1997
[ID27]_Rarotonga_3R_[Col1]_Rarotonga.3R_d18O;27;Rarotonga_3R;coral;Rarotonga 3R_DJFMAM; -21.23333333;-159.83333;    0.0;Pacific Ocean;Cook Island;  1874;2000
[ID31]_Rodrigues_d18O_[Col1]_Rodrigues_18O_Yr;31;Rodrigues_d18O;coral;Rodrigues d18O; -19.00000000;  63.00000;    0.0;Indian Ocean;Other;  1789;2005
[ID32]_Rabaul_d18O_[Col1]_Rabaul_d18O;32;Rabaul_d18O;coral;Rabaul d18O_DJFMAM;  -4.00000000; 152.00000;    0.0;Australasia;Papua New Guinea;  1867;1997
[ID34]_Laing_[Col1]_Laing_d18O;34;Laing;coral;Laing_DJFMAM;  -4.15000000; 144.88333;    0.0;Australasia;Papua New Guinea;  1884;1993
[ID36]_Fiji_AB_d18O_[Col1]_Fiji_AB_d18O;36;Fiji_AB_d18O;coral;Fiji AB d18O DJFMAM; -16.81666667; 179.23333;  -10.0;Pacific Ocean;Fiji;  1617;2001
[ID37]_Fiji_1F_SrCa_[Col1]_Fiji_1F_SrCa;37;Fiji_1F_SrCa;coral;Fiji 1F SrCa DJFMAM; -16.81666667; 179.23333;  -10.0;Pacific Ocean;Fiji;  1780;1997
[ID38]_Fiji_1F_d18O_[Col1]_Fiji_1F_d18O;38;Fiji_1F_d18O;coral;Fiji 1F d18O DJFMAM; -16.81666667; 179.23333;  -10.0;Pacific Ocean;Fiji;  1781;1997
[ID43]_Bali_Indonesia_[Col1]_Bali_d18O;43;Bali_Indonesia;coral;Bali_DJFMAM;  -8.00000000; 115.00000;    0.0;Australasia;Indonesia;  1783;1990
[ID45]_Dunbar_1_[Col1]_Urvina_Bay_Coral;45;Dunbar_1;coral;Urvina, Galapagos Islands;  -0.03333333; -91.23333;    0.0;South America;Ecuador;  1607;1981
[ID53]_LaReunion_[Col1]_La_Reunion_d18O;53;LaReunion;coral;La Reunion_DJFMAM; -21.03333333;  55.25000;    0.0;Indian Ocean;La Reunion;  1832;1995
[ID55]_Kavieng_SrCa_[Col1]_Kavieng_SrCa;55;Kavieng_SrCa;coral;Kavieng, PNG SrCa DJFMAM;  -2.50000000; 150.50000;    0.0;Pacific Ocean;Papua New Guinea;  1823;1997
[ID57]_Kavieng_BaCa_[Col1]_Kavieng_BaCa;57;Kavieng_BaCa;coral;Kavieng, PNG BaCa DJFMAM;  -2.50000000; 150.50000;    0.0;Pacific Ocean;Papua New Guinea;  1823;1997
[ID60]_Ifaty4_SrCa_[Col1]_Ifaty_4_SrCa;60;Ifaty4_SrCa;coral;Ifaty 4 Sr/Ca; -23.00000000;  43.00000;    0.0;Indian Ocean;Madagascar;  1658;2007
[ID62]_Ifaty1_SrCa_[Col1]_Ifaty1_.SrCa;62;Ifaty1_SrCa;coral;Ifaty 1 Sr/Ca; -23.00000000;  43.00000;    0.0;Indian Ocean;Madagascar;  1882;1994
[ID66]_Tonga_TNI2_d18O_[Col1]_Tonga_TNI2_d18O;66;Tonga_TNI2_d18O;coral;Tonga TNI2 d18O DJFMAM; -20.26666667;-174.81667;   -4.0;Pacific Ocean;Tonga;  1849;2004
[ID67]_Tonga_TH1_[Col1]_Tonga_TH1_d18O;67;Tonga_TH1;coral;Tonga TH1; -19.93333333;-174.71667;   -1.0;Pacific Ocean;Tonga;  1794;2004
[ID69]_Vanuatu_[Col1]_Vanuatu_d18O;69;Vanuatu;coral;Vanuatu; -15.00000000; 167.00000;    0.0;Indian Ocean;Vanuatu;  1806;1979
[ID72]_Ifaty_d13C_[Col1]_d13C_Ifaty;72;Ifaty_d13C;coral;Ifaty, Madagascar; -23.15000000;  43.58333;   -1.0;Indian Ocean;Other;  1659;1995
[ID73]_Prieto_4_[Col1]_Rio Mendoza_1;73;Prieto_4;documents;Rio Mendoza; -32.00000000; -68.00000;    0.0;South America;Argentina;  1601;1960
[ID74]_Kalahari_precip_[Col1]_Southern Kalahari_1;74;Kalahari_precip;documents;Southern Kalahari; -25.00000000;  26.00000;NA;Africa;South Africa;  1815;1899
[ID75]_Prieto_14_[Col1]_Santiago del Estero_1;75;Prieto_14;documents;Santiago del Estero; -27.76666667; -64.26667;    0.0;South America;Argentina;  1750;1921
[ID76]_Prieto_15_[Col1]_Cordoba_1;76;Prieto_15;documents;Cordoba; -31.00000000; -64.00000;    0.0;South America;Argentina;  1700;1806
[ID77]_Prieto_17_[Col1]_Rio Parana_1;77;Prieto_17;documents;Rio Parana; -30.00000000; -60.00000;    0.0;South America;Argentina;  1590;1805
[ID78]_Prieto_18_[Col1]_Santiago_de_Chile_precipitation;78;Prieto_18;documents;Central Andes snow depth; -33.00000000; -70.00000;NA;South America;Argentina;  1760;1969
[ID79]_Prieto_12_[Col1]_Rio Sali / Rio Dulce_1;79;Prieto_12;documents;Rio Sali / Rio Dulce; -27.00000000; -65.00000;    0.0;South America;Argentina;  1750;1921
[ID81]_Prieto_8_[Col1]_Santa Fe and Corrientes Precipitation_1;81;Prieto_8;documents;Santa Fe and Corrientes Precipitation; -30.00000000; -60.00000;    0.0;South America;Argentina;  1590;1805
[ID82]_Prieto_9_[Col1]_nieve_cordillera_periodico;82;Prieto_9;documents;Central Andes snow occurrence; -33.00000000; -70.00000;NA;South America;Argentina;  1885;1996
[ID84]_Taulis_1_[Col1]_Santiago de Chile_1;84;Taulis_1;documents;Santiago de Chile; -33.38333333; -70.78333;    0.0;South America;Chile;  1540;1993
[ID85]_Garcia-Herrera_1_[Col1]_Combined_Garcia.Herrera_Quinn_ENSO;85;Garcia-Herrera_1;documents;Area de Trujillo;  -8.10000000; -79.01667;    0.0;South America;Peru;  1550;1900
[ID86]_Namaqualand_precip_[Col1]_Namaqualand_1;86;Namaqualand_precip;documents;Namaqualand; -29.00000000;  17.00000;NA;Africa;South Africa;  1817;1900
[ID88]_Lesotho_precip_[Col1]_Lesotho_1;88;Lesotho_precip;documents;Lesotho; -29.50000000;  27.50000;NA;Africa;Lesotho;  1824;1994
[ID89]_Prieto_13_[Col1]_Tucuman_1;89;Prieto_13;documents;Tucuman; -27.03333333; -65.00000;    0.0;South America;Argentina;  1548;1810
[ID91]_Prieto_10_[Col1]_Potosi_1;91;Prieto_10;documents;Potosi; -19.58333333; -65.75000; 4000.0;South America;Bolivia;  1585;1814
[ID92]_Eastern_Cape_precip_[Col1]_Eastern Cape South Africa_1;92;Eastern_Cape_precip;documents;Eastern Cape South Africa; -34.00000000;  24.50000;NA;Africa;South Africa;  1821;1900
[ID93]_Southern_Cape_precip_[Col1]_Southern Cape South Africa_1;93;Southern_Cape_precip;documents;Southern Cape South Africa; -34.00000000;  20.00000;NA;Africa;South Africa;  1821;1900
[ID94]_ITASE_2000_1_Acc_[Col1]_ITASE_00.1_Accumulation;94;ITASE_2000_1_Acc;ice core;ITASE 2000 1 Accumulation; -79.36666667;-111.23333; 1794.0;Antarctica;Antarctica;  1653;1999
[ID95]_Vimeux_1_[Col1]_Illimani_deuterium;95;Vimeux_1;ice core;Illimani deuterium; -16.65000000; -67.78333; 6300.0;South America;Bolivia;   898;1998
[ID97]_Siple_Dome_A_[Col1]_Siple_Dome_A._dD;97;Siple_Dome_A;ice core;Siple Dome A; -81.65000000;-148.80000;  615.0;Antarctica;Antarctica;  1000;1993
[ID98]_Stenni_1_[Col1]_Talos;98;Stenni_1;ice core;Talos; -72.80000000; 159.10000; 2316.0;Antarctica;Antarctica;  1217;1996
[ID99]_DML_Na_[Col1]_DML07_Na;99;DML_Na;ice core;Dronning Maud Land Na; -75.00000000;   0.00000; 2900.0;Antarctica;Antarctica;  1849;1994
[ID100]_Dolleman_[Col1]_Dolleman_d180;100;Dolleman;ice core;Dolleman; -70.56666667; -60.93333;  398.0;Antarctica;Antarctica;  1652;1992
[ID100]_Dolleman_[Col7]_Dolleman_Chem_PC1;100;Dolleman;ice core;Dolleman; -70.56666667; -60.93333;  398.0;Antarctica;Antarctica;  1652;1992
[ID101]_WDC06A_rBC_[Col1]_WDC06A_rBC;101;WDC06A_rBC;ice core;WDC06A black carbon; -79.46666667;-112.08333; 1806.0;Antarctica;Antarctica;  1890;2002
[ID104]_Siple_Dome_B_[Col1]_Siple_DOME_B;104;Siple_Dome_B;ice core;Siple Dome B; -81.65000000;-148.80000;  615.0;Antarctica;Antarctica;  1654;1994
[ID105]_Law_Dome_Chem_[Col1]_Na.uEq.l.;105;Law_Dome_Chem;ice core;Law Dome chemical data; -66.83333333; 112.83333; 1370.0;Antarctica;Antarctica;  1297;1995
[ID105]_Law_Dome_Chem_[Col2]_K.uEq.l.;105;Law_Dome_Chem;ice core;Law Dome chemical data; -66.83333333; 112.83333; 1370.0;Antarctica;Antarctica;  1297;1995
[ID105]_Law_Dome_Chem_[Col3]_Mg.uEq.l.;105;Law_Dome_Chem;ice core;Law Dome chemical data; -66.83333333; 112.83333; 1370.0;Antarctica;Antarctica;  1297;1995
[ID105]_Law_Dome_Chem_[Col4]_Ca.uEq.l.;105;Law_Dome_Chem;ice core;Law Dome chemical data; -66.83333333; 112.83333; 1370.0;Antarctica;Antarctica;  1297;1995
[ID105]_Law_Dome_Chem_[Col5]_MSA.uEq.l.;105;Law_Dome_Chem;ice core;Law Dome chemical data; -66.83333333; 112.83333; 1370.0;Antarctica;Antarctica;  1297;1995
[ID105]_Law_Dome_Chem_[Col6]_Cl.uEq.l.;105;Law_Dome_Chem;ice core;Law Dome chemical data; -66.83333333; 112.83333; 1370.0;Antarctica;Antarctica;  1297;1995
[ID105]_Law_Dome_Chem_[Col7]_NO3.uEq.l.;105;Law_Dome_Chem;ice core;Law Dome chemical data; -66.83333333; 112.83333; 1370.0;Antarctica;Antarctica;  1297;1995
[ID105]_Law_Dome_Chem_[Col8]_SO4.uEq.l.;105;Law_Dome_Chem;ice core;Law Dome chemical data; -66.83333333; 112.83333; 1370.0;Antarctica;Antarctica;  1297;1995
[ID105]_Law_Dome_Chem_[Col9]_nssSO4.uEq.l.;105;Law_Dome_Chem;ice core;Law Dome chemical data; -66.83333333; 112.83333; 1370.0;Antarctica;Antarctica;  1297;1995
[ID110]_Siple_Dome_Na_[Col1]_Siple_Dome_Na;110;Siple_Dome_Na;ice core;Siple Dome Na; -81.65000000;-148.81667;  650.0;Antarctica;Antarctica;     0;1980
[ID113]_Berkner_Island_Accumulation_[Col1]_Berkner_Accumulation;113;Berkner_Island_Accumulation;ice core;Berkner island_Accumulation; -79.60000000; -45.73333;  886.0;Antarctica;Antarctica;  1000;1994
[ID115]_Kellerhals_1_[Col1]_Illimani_NH4;115;Kellerhals_1;ice core;Illimani NH4; -16.65000000; -67.78333; 6300.0;South America;Bolivia;   353;1998
[ID116]_Graf_1_[Col1]_DML_1000_d18O;116;Graf_1;ice core;Dronning Maud Land; -75.00000000;   0.00000; 2900.0;Antarctica;Antarctica;  1025;1997
[ID116]_Graf_1_[Col2]_DML_1000_Accumulation;116;Graf_1;ice core;Dronning Maud Land; -75.00000000;   0.00000; 2900.0;Antarctica;Antarctica;  1025;1997
[ID117]_WDC05A_Acc_[Col1]_WDC05A;117;WDC05A_Acc;ice core;WDC05A Accumulation; -79.45000000;-112.13333; 1759.0;Antarctica;Antarctica;  1775;2004
[ID118]_Thomas_1_[Col1]_Gomez_accumulation;118;Thomas_1;ice core;Gomez accumulation; -73.60000000; -70.35000; 1400.0;Antarctica;Antarctica;  1854;2006
[ID119]_Thomas_2_[Col1]_Gomez_d18O;119;Thomas_2;ice core;Gomez d18O; -73.60000000; -70.35000; 1400.0;Antarctica;Antarctica;  1857;2005
[ID120]_Vostok_Pits_[Col2]_Vostok_d18O;120;Vostok_Pits;ice core;Vostok Pits; -78.45000000; 106.83333; 3500.0;Antarctica;Antarctica;  1774;1999
[ID120]_Vostok_Pits_[Col4]_Vostok_Accumulation;120;Vostok_Pits;ice core;Vostok Pits; -78.45000000; 106.83333; 3500.0;Antarctica;Antarctica;  1774;1999
[ID123]_WDC05Q_Acc_[Col1]_WDC05Q;123;WDC05Q_Acc;ice core;WDC05Q Accumulation; -79.45000000;-112.08333; 1759.0;Antarctica;Antarctica;  1521;2004
[ID126]_Princess_Elizabeth_[Col9]_Princess_Elizabeth_d18O;126;Princess_Elizabeth;ice core;Princess Elizabeth Land; -70.83333333;  77.06667; 1850.0;Antarctica;Antarctica;  1745;1996
[ID126]_Princess_Elizabeth_[Col10]_Princess_Elizabeth_Accmulation;126;Princess_Elizabeth;ice core;Princess Elizabeth Land; -70.83333333;  77.06667; 1850.0;Antarctica;Antarctica;  1745;1996
[ID126]_Princess_Elizabeth_[Col11]_Princess_Elizabeth_Chem_PC1;126;Princess_Elizabeth;ice core;Princess Elizabeth Land; -70.83333333;  77.06667; 1850.0;Antarctica;Antarctica;  1745;1996
[ID127]_Aristarain_1_[Col1]_James_Ross;127;Aristarain_1;ice core;James Ross Island; -64.36666667; -58.13333; 1640.0;Antarctica;Antarctica;  1791;2000
[ID129]_Boes_1_[Col1]_Puyehue_varve_thickness;129;Boes_1;lake sediment;Lago Puyehue; -40.65000000; -72.45000;  212.0;South America;Chile;  1408;1997
[ID131]_Plomo_Lake_[Col1]_Plomo_precip;131;Plomo_Lake;lake sediment;Lago Plomo; -46.98333333; -72.86667;  203.0;South America;Chile;  1530;2000
[ID132]_Pumacocha_d180_[Col1]_Pumacocha_d18O;132;Pumacocha_d180;lake sediment;Laguna Pumacocha Peru; -10.70000000; -76.06667; 4300.0;South America;Peru;  -277;2007
[ID134]_Lake_Challa_[Col1]_Lake_Challa_varve_thickness;134;Lake_Challa;lake sediment;Lake Challa Kenya;  -3.31666667;  37.70000;  880.0;Africa;Kenya; -1050;2005
[ID137]_Rein_1_[Col1]_X106KL_lithics;137;Rein_1;marine sediment;106KL off Peruvian Coast; -12.05000000; -77.66667; -184.0;South America;Peru;-13550;2000
[ID140]_Cascayunga_Peru_[Col1]_Cascayunga_d18O;140;Cascayunga_Peru;speleothem;Cascayunga Cave, Peru;  -6.06666667; -77.20000;  885.0;South America;Peru;  1089;2005
[ID141]_Rasbury_1_[Col1]_Avaiki_ASM1;141;Rasbury_1;speleothem;Avaiki; -19.00000000;-169.83333;NA;Pacific Ocean;Other;  1829;2001
[ID143]_WA_Callitris_[Col6]_SW_Callitris_LKG_LTY_Signalfree_2;143;WA_Callitris;tree;WA Callitris; -33.03333333; 120.76667;  300.0;Australasia;Australia;  1601;2005
[ID147]_BawBaw_[Col6]_BawBaw_Signalfree_2;147;BawBaw;tree;Baw Baw; -36.41666667; 148.33333; 2000.0;Australasia;Australia;  1780;2008
[ID148]_TR_Cluster_CAN22_[Col6]_NOPU_Cluster_9_Data_Signalfree_2;148;TR_Cluster_CAN22;tree;CAN22_Cluster; -41.75000000; -71.75000; 1300.0;South America;Argentina;  1614;1994
[ID152]_TR_Cluster_CAN5_[Col6]_NOPU_Cluster_8_Data_Signalfree_2;152;TR_Cluster_CAN5;tree;CAN5_Cluster; -38.61666667; -71.58333; 1640.0;South America;Chile;  1680;1996
[ID156]_Buckleys_Chance_[Col6]_BCH_Signalfree_2;156;Buckleys_Chance;tree;Buckleys Chance Tasmania; -42.26666667; 145.86667;  900.0;Australasia;Australia;   910;1991
[ID158]_TR_Cluster_CAN15_[Col6]_NOPU_Cluster_7x_Data_Signalfree_2;158;TR_Cluster_CAN15;tree;CAN15_Cluster; -41.16666667; -71.91667; 1300.0;South America;Argentina;  1539;1991
[ID162]_Gleeson_3_[Col6]_TM4_Signalfree_2;162;Gleeson_3;tree;Torre Morena 4; -49.50000000; -73.50000;  658.0;South America;Argentina;  1703;2007
[ID166]_Gleeson_5_[Col6]_HME_Signalfree_2;166;Gleeson_5;tree;Heim Morena Este; -50.60000000; -73.66667;  650.0;South America;Argentina;  1684;2007
[ID169]_CTP_East_[Col6]_CTP_East_BLT_RFR_Signalfree_2;169;CTP_East;tree;CTP East Tasmania; -42.00000000; 148.00000;  600.0;Australasia;Australia;  1152;1994
[ID176]_arge021_[Col6]_HUI_Christie;176;arge021;tree;HUINGANCO; -37.75000000; -70.60000; 1400.0;South America;Argentina;  1418;2000
[ID178]_arge019_[Col6]_arge019_Signalfree_2;178;arge019;tree;LAGO RUCACHOROI; -39.21666667; -71.16667; 1330.0;South America;Argentina;  1572;1976
[ID181]_chil002_[Col6]_chil002_Signalfree_2;181;chil002;tree;EL ASIENTO, ACONCAGUA; -32.48333333; -70.81667; 1800.0;South America;Chile;   955;2000
[ID202]_chil008_[Col6]_chil008_Signalfree_2;202;chil008;tree;VOLCAN LONQUIMAY; -38.38333333; -71.56667; 1510.0;South America;Chile;  1664;1975
[ID206]_arge035_[Col6]_arge035_Signalfree_2;206;arge035;tree;DIQUE ESCABA, TUCUMAN; -27.70000000; -65.78333;  900.0;South America;Argentina;  1813;1985
[ID216]_Ahaura_Treering_[Col6]_Ahaura_EC_Signalfree_2;216;Ahaura_Treering;tree;Ahaura; -42.38333333; 171.80000;  244.0;Australasia;New Zealand;  1175;2000
[ID219]_arge029_[Col6]_arge029_Signalfree_2;219;arge029;tree;CHAPELCO; -40.33333333; -71.23333; 1700.0;South America;Argentina;  1766;1985
[ID225]_arge005_[Col6]_arge005_Signalfree_2;225;arge005;tree;PINO HACHADO; -38.63333333; -70.75000; 1400.0;South America;Argentina;  1459;1974
[ID284]_arge051_[Col6]_arge051_Signalfree_2;284;arge051;tree;PUERTO PARRYN T. DEL FUEGO; -54.83333333; -64.36667;   20.0;South America;Argentina;  1726;1986
[ID285]_arge050_[Col6]_arge050_Signalfree_2;285;arge050;tree;PASO CORDOVA, NEUQUEN; -40.66666667; -71.25000; 1890.0;South America;Argentina;  1692;1986
[ID287]_arge048_[Col6]_arge048_Signalfree_2;287;arge048;tree;ALTO LOS MANANTIALES; -32.71666667; -69.08333; 3100.0;South America;Argentina;  1768;1986
[ID298]_TR_Cluster_CAN18_[Col6]_NOPU_Cluster_6_Data_Signalfree_2;298;TR_Cluster_CAN18;tree;CAN18_Cluster; -41.25000000; -71.50000; 1550.0;South America;Argentina;  1546;1994
[ID311]_NI_LIBI_Composite_1_[Col6]_NI_LIBI_Composite_1_Signalfree_2;311;NI_LIBI_Composite_1;tree;NI LIBI Composite 1; -39.50000000; 175.50000; 1100.0;Australasia;New Zealand;  1517;1992
[ID317]_TR_Cluster_CAN21_[Col6]_C.Andes_Cluster_17_Data_Signalfree_2;317;TR_Cluster_CAN21;tree;CAN21_Cluster; -41.50000000; -71.50000;  670.0;South America;Argentina;  1596;1992
[ID318]_NI_LIBI_URW_[Col6]_URW_newz063_Signalfree_2;318;NI_LIBI_URW;tree;Urewera; -38.68333333; 177.20000;  930.0;Australasia;New Zealand;  1442;1992
[ID319]_NI_LIBI_TAK_[Col6]_TAK_newz062_Signalfree_2;319;NI_LIBI_TAK;tree;Takapari; -40.06666667; 175.98333;  960.0;Australasia;New Zealand;  1530;1992
[ID320]_NI_LIBI_Conmposite_2_[Col6]_NI_LIBI_Composite_2_Signalfree_2;320;NI_LIBI_Conmposite_2;tree;NI LIBI Composite 2; -39.26666667; 174.10000; 1000.0;Australasia;New Zealand;  1671;1990
[ID321]_SI_LIBI_FLA_[Col6]_FLA_newz065_Signalfree_2;321;SI_LIBI_FLA;tree;Flanagans Hut; -41.26666667; 172.60000;  950.0;Australasia;New Zealand;  1778;1991
[ID325]_Srur_1_[Col6]_bajoco_Signalfree_2;325;Srur_1;tree;El Chalten bajo; -49.36666667; -72.90000;  760.0;South America;Argentina;  1770;2003
[ID331]_Stew_Isl_HABI_composite_[Col6]_Stewart_Island_HABI_composite_Signalfree_2;331;Stew_Isl_HABI_composite;tree;Stewart Island; -47.00000000; 168.00000;  450.0;Australasia;New Zealand;  1604;1994
[ID335]_SI_LIBI_MOA_[Col6]_MOA_newz067_Signalfree_2;335;SI_LIBI_MOA;tree;Moa Park; -40.93333333; 172.93333; 1036.0;Australasia;New Zealand;  1551;1991
[ID347]_TR_Cluster_CAN13_[Col6]_C.Andes_Cluster_10A_NEU_Data_Signalfree_2;347;TR_Cluster_CAN13;tree;CAN13_Cluster; -41.00000000; -71.25000; 1000.0;South America;Argentina;  1461;2003
[ID348]_TR_Cluster_CAN8_[Col6]_C.Andes_Cluster_10B_Data_Signalfree_2;348;TR_Cluster_CAN8;tree;CAN8_Cluster; -39.16666667; -71.16667; 1125.0;South America;Argentina;  1562;1989
[ID350]_NT_Callitris_[Col6]_NT_Signalfree_2;350;NT_Callitris;tree;NT Callitris; -13.00000000; 132.00000;NA;Australasia;Australia;  1847;2006
[ID352]_NOA_7_[Col6]_LMC_Signalfree_2;352;NOA_7;tree;La Meseda; -23.00000000; -65.01667; 1600.0;South America;Argentina;  1793;1999
[ID353]_NOA_25_[Col6]_sala_Signalfree_2;353;NOA_25;tree;Rio Sala and Popayan; -24.60000000; -64.60000;  700.0;South America;Argentina;  1849;2002
[ID359]_safr001_[Col6]_safr001_Signalfree_2;359;safr001;tree;Die Bos; -32.40000000;  19.21667;NA;Africa;South Africa;  1564;1976
[ID361]_Pink_Pine_NZ_[Col6]_New_Fenwick_Composite_Signalfree_2;361;Pink_Pine_NZ;tree;Pink Pine NZ; -42.00000000; 172.00000;NA;Australasia;New Zealand;  1400;1999
[ID362]_Teak_Indonesia_[Col6]_java_Signalfree_2;362;Teak_Indonesia;tree;Teak Indonesia;  -7.00000000; 111.00000;NA;Australasia;Indonesia;  1565;2005
[ID363]_Therell_1_[Col6]_zim_raw_Signalfree_2;363;Therell_1;tree;Zimbabwe; -18.50000000;  27.33333; 1000.0;Africa;Zimbabwe;  1796;1996
[ID364]_LeQuesne_PP_recon_[Col1]_LeQuesne_C.Chile.PP;364;LeQuesne_PP_recon;tree;LeQuesne Central Chile PP recon; -34.00000000; -70.41667; 1700.0;South America;Chile;  1200;2000
[ID370]_TR_Cluster_CAN17_[Col6]_NOPU_Cluster_1_Data_Signalfree_2;370;TR_Cluster_CAN17;tree;CAN17_Cluster; -41.16666667; -71.83333; 1700.0;South America;Argentina;  1838;1994
[ID372]_TR_Cluster_NWA2_[Col6]_NOA_Cluster_4_Data_Signalfree_2;372;TR_Cluster_NWA2;tree;NWA2_Cluster; -24.00000000; -65.00000; 2200.0;South America;Argentina;  1742;2001
[ID374]_TR_Cluster_SAN5_[Col6]_NOPU_Cluster_18_Data_Signalfree_2;374;TR_Cluster_SAN5;tree;SAN5_Cluster; -54.75000000; -67.66667;  600.0;South America;Argentina;  1528;1986
[ID375]_Kauri_NZ_[Col6]_AGAUm05_Signalfree_2;375;Kauri_NZ;tree;Kauri NZ; -36.00000000; 174.00000;  200.0;Australasia;New Zealand;  1269;2002
[ID385]_Huon_Pine_Tasmania_[Col1]_MtRead_TT_recon;385;Huon_Pine_Tasmania;tree;Huon Pine Mt. Read Tasmania; -42.00000000; 147.00000;  600.0;Australasia;Australia; -2145;1999
[ID387]_TR_Cluster_NWA4_[Col6]_NOA_Cluster_3x_Data_Signalfree_2;387;TR_Cluster_NWA4;tree;NWA4_Cluster; -24.00000000; -65.00000; 1750.0;South America;Argentina;  1793;1999
[ID396]_TR_Cluster_SAN6_[Col6]_NOPU_Cluster_10_Data_Signalfree_2;396;TR_Cluster_SAN6;tree;SAN6_Cluster; -54.83333333; -64.33333;   40.0;South America;Argentina;  1647;1986
[ID406]_TR_Cluster_CAN27_[Col6]_NOPU_Cluster_5x_Data_Signalfree_2;406;TR_Cluster_CAN27;tree;CAN27_Cluster; -49.00000000; -72.00000;  800.0;South America;Argentina;  1647;2003
[ID410]_TR_Cluster_CAN10_[Col6]_C.Andes_Cluster_8_Data_Signalfree_2;410;TR_Cluster_CAN10;tree;CAN10_Cluster; -39.50000000; -70.83333; 1320.0;South America;Argentina;  1508;1989
[ID411]_TR_Cluster_CAN1_[Col6]_C.Andes_Cluster_9_Data_Signalfree_2;411;TR_Cluster_CAN1;tree;CAN1_Cluster; -34.50000000; -70.50000; 1200.0;South America;Chile;  1131;1975
[ID412]_TR_Cluster_CAN9_[Col6]_C.Andes_Cluster_7AN_Data_Signalfree_2;412;TR_Cluster_CAN9;tree;CAN9_Cluster; -39.33333333; -71.25000; 1100.0;South America;Argentina;  1306;2006
[ID415]_TR_Cluster_CAN33_[Col6]_Chalten_1_Signalfree_2;415;TR_Cluster_CAN33;tree;CAN33_Cluster; -49.45000000; -73.33333;  775.0;South America;Argentina;  1629;2007
[ID416]_TR_Cluster_CAN34_[Col6]_Chalten_2_Signalfree_2;416;TR_Cluster_CAN34;tree;CAN34_Cluster; -50.60000000; -73.66667;  461.0;South America;Argentina;  1715;2007
[ID417]_TR_Cluster_CAN32_[Col6]_Chalten_3_Signalfree_2;417;TR_Cluster_CAN32;tree;CAN32_Cluster; -48.46666667; -72.25000;  945.0;South America;Argentina;  1599;1998
[ID419]_TR_Cluster_NWA1_[Col6]_NOA_Cluster_1B_Data_Signalfree_2;419;TR_Cluster_NWA1;tree;NWA1_Cluster; -23.00000000; -65.00000; 1200.0;South America;Argentina;  1791;2002
[ID420]_TR_Cluster_NWA5_[Col6]_NOA_Cluster_2x_Data_Signalfree_2;420;TR_Cluster_NWA5;tree;NWA5_Cluster; -25.00000000; -65.50000; 2000.0;South America;Argentina;  1686;2002
[ID422]_TR_Cluster_CAN20_[Col6]_C.Andes_Cluster_3A_Data_Signalfree_2;422;TR_Cluster_CAN20;tree;CAN20_Cluster; -41.33333333; -71.83333;  900.0;South America;Argentina;  -342;1995
[ID423]_TR_Cluster_CAN23_[Col6]_C.Andes_Cluster_3B_Data_Signalfree_2;423;TR_Cluster_CAN23;tree;CAN23_Cluster; -42.00000000; -71.83333; 1220.0;South America;Argentina;   320;1993
[ID424]_TR_Cluster_CAN25_[Col6]_C.Andes_Cluster_3C_Data_Signalfree_2;424;TR_Cluster_CAN25;tree;CAN25_Cluster; -42.50000000; -71.83333;  550.0;South America;Argentina;   311;1993
[ID425]_TR_Cluster_CAN26_[Col6]_C.Andes_Cluster_3D_Data_Signalfree_2;425;TR_Cluster_CAN26;tree;CAN26_Cluster; -42.50000000; -73.83333;  750.0;South America;Chile;  1386;1987
[ID427]_TR_Cluster_CAN3_[Col6]_C.Andes_Cluster_7B_Data_Signalfree_2;427;TR_Cluster_CAN3;tree;CAN3_Cluster; -38.00000000; -71.25000; 1570.0;South America;Argentina;  1375;1975
[ID431]_Mangawhero_NZ_[Col6]_MANGAWE_Signalfree_2;431;Mangawhero_NZ;tree;Mangawhero; -39.35000000; 175.48333; 1000.0;Australasia;New Zealand;  1437;1994
[ID432]_TR_Cluster_CAN12_[Col6]_C.Andes_Cluster_6A_Data_Signalfree_2;432;TR_Cluster_CAN12;tree;CAN12_Cluster; -40.00000000; -71.00000;  800.0;South America;Argentina;  1508;1992
[ID435]_TR_Cluster_CAN6_[Col6]_C.Andes_Cluster_5N_Data_Signalfree_2;435;TR_Cluster_CAN6;tree;CAN6_Cluster; -38.50000000; -71.50000; 1400.0;South America;Argentina;  1140;2006
[ID437]_Flores_d18O_[Col1]_Flores_d18O;437;Flores_d18O;speleothem;Flores Indonesia d18O;  -4.00000000; 119.00000;    0.0;Australasia;Indonesia;     5;2005
[ID438]_Cape Range, Western Australia_[Col1]_d18OCR.1;438;Cape Range, Western Australia;speleothem;Cape Range CR1; -21.93000000; 114.05000;   98.0;Australasia;Australia;   511;2010
[ID439]_Law_Dome_Na_new_[Col1]_Law_Dome_Na;439;Law_Dome_Na_new;ice core;Law Dome Na new; -66.14000000; 111.86000; 1370.0;Antarctica;Antarctica;  1000;2009
[ID440]_James Ross Island 2014_[Col1]_JRI_dD_Jan_Dec;440;James Ross Island 2014;ice core;James_Ross_Island_2014; -64.20000000; -57.69000; 1542.0;Antarctica;Antarctica;  1000;2007
[ID440]_James Ross Island 2014_[Col2]_JRI_melt_thick_Jan_Dec;440;James Ross Island 2014;ice core;James_Ross_Island_2014; -64.20000000; -57.69000; 1542.0;Antarctica;Antarctica;  1000;2007
[ID441]_Law Dome Summer Sea Salt_[Col1]_Law_Dome_SSS;441;Law Dome Summer Sea Salt;ice core;Law_Dome_SSS; -66.13000000; 111.87000; 1370.0;Antarctica;Antarctica;  1000;2009
[ID442]_Chillagoe, Queensland_[Col1]_d18OCH.1;442;Chillagoe, Queensland;speleothem;Chillagoe CH1; -17.15000000; 144.52000;  357.0;Australasia;Australia;  1227;2003
[ID443]_Solomon_Stal_[Col4]_d18OcarbVPDB;443;Solomon_Stal;speleothem;Guadalcanal_Solomon;  -9.49000000; 159.97000;  200.0;Pacific Ocean;Australia;  1423;2010
[ID445]_Vanuatu_Stal_[Col3]_d18OcarbVPDB;445;Vanuatu_Stal;speleothem;Espiritu Santo, Vanuatu; -15.53000000; 167.02000;  230.0;Pacific Ocean;Australia;  1557;2003
[ID451]_NSW_Rainfall_[Col1]_Eastern.NSW.rainfall.index;451;NSW_Rainfall;documents;NSW Rainfall; -33.90000000; 151.20000;    0.0;Australasia;Australia;  1788;2008
[ID452]_Tonga_TH1_[Col1]_Ha.afera_SrCa;452;Tonga_TH1;coral;Tonga TH1 SrCa; -19.93000000;-174.72000;    0.0;Australasia;Tonga;  1791;2003
[ID548]_indo002_crns_col.txt_[Col1]_indo002Signalfree_2;548;indo002_crns_col.txt;tree;indo002_crns_col.txt;  -8.11666667; 111.36667;NA;Asia;Unknown;  1668;2004
[ID549]_indo003_crns_col.txt_[Col1]_indo003Signalfree_2;549;indo003_crns_col.txt;tree;indo003_crns_col.txt;  -8.86666667; 111.20000;NA;Asia;Unknown;  1714;2004
[ID550]_indo004_crns_col.txt_[Col1]_indo004Signalfree_2;550;indo004_crns_col.txt;tree;indo004_crns_col.txt;  -8.50000000; 111.78333;NA;Asia;Unknown;  1644;2005
[ID551]_indo005_crns_col.txt_[Col1]_indo005Signalfree_2;551;indo005_crns_col.txt;tree;indo005_crns_col.txt;  -6.50000000; 123.00000;NA;Asia;Unknown;  1565;2005
[ID552]_indo006_crns_col.txt_[Col1]_indo006Signalfree_2;552;indo006_crns_col.txt;tree;indo006_crns_col.txt;  -8.03333333; 110.26667;NA;Asia;Unknown;  1776;2004
[ID553]_indo007_crns_col.txt_[Col1]_indo007Signalfree_2;553;indo007_crns_col.txt;tree;indo007_crns_col.txt;  -8.50000000; 111.71667;NA;Asia;Unknown;  1689;2000
[ID554]_indo008_crns_col.txt_[Col1]_indo008Signalfree_2;554;indo008_crns_col.txt;tree;indo008_crns_col.txt;  -7.86666667; 115.38333;NA;Asia;Unknown;  1760;2000
[ID588]_DeJong_LagunaChepical_[Col1]_temperature_Laguna_Chepical;588;DeJong_LagunaChepical;lake sediment;Laguna Chepical; -32.26670000; -70.50000; 3050.0;South America;Chile; -1161;2005
[ID589]_Gallego_ASWI_2015_[Col1]_ASWI_West_Africa;589;Gallego_ASWI_2015;instrumental;West Africa; -23.00000000;  10.00000;NA;Africa;NA;  1750;2013
[ID590]_Gallego_WI_2015_[Col1]_WI.(%)_West_Africa_WI;590;Gallego_WI_2015;instrumental;West Africa WI; -23.00000000;  10.00000;NA;Africa;NA;  1750;2012
[ID591]_Hannaford_Shiplogs_Mthatha_[Col1]_1_Mthatha;591;Hannaford_Shiplogs_Mthatha;instrumental;Mthatha; -31.56666700;  28.76667;  764.0;Africa;South-Africa;  1796;2000
[ID592]_Hannaford_Shiplogs_RNP_[Col1]_1_Royal_National_Park;592;Hannaford_Shiplogs_RNP;instrumental;Royal National Park; -28.68900000;  28.94500;NA;Africa;South-Africa;  1797;2012
[ID597]_Burdekin_River_Recon_Update_[Col1]_Rec.Burdekin.km3_Burdekin_River;597;Burdekin_River_Recon_Update;coral;Burdekin River; -18.91666667; 146.60000;    0.0;Australasia;Australia;  1648;2011
[ID599]_Nash Natal documentaries_[Col1]_1_Madagaskar;599;Nash Natal documentaries;documents;Madagaskar; -18.93861100;  47.52139;NA;Africa;Madagaskar;  1836;1999
[ID600]_LagoPlomo2015_[Col1]_tempanom-SONDJF_Lago_Plomo;600;LagoPlomo2015;lake sediment;Lago Plomo; -46.98330000; -72.86670;  203.0;South America;Chile;  1383;2001
[ID602]_Roberts_LawDome_Accumulation_[Col1]_Power.law.accumulation.(ice.equivalent.m/y)_Law_Dome_Summit_South;602;Roberts_LawDome_Accumulation;ice core;Law Dome Summit South; -66.77000000; 112.81000; 1370.0;Antarctica;Antarctica;   -22;2012
[ID603]_Jarvis_Thompson_2015_SrCa_[Col1]_Jarvis.Sr/Ca.(mmol/mol).10-year.smoothed.&.detrended_Jarvis;603;Jarvis_Thompson_2015_SrCa;coral;Jarvis;  -0.37500000;-160.00100;NA;Pacific Ocean;NA;  1890;1990
[ID607]_Pafuri2015Baobab13C_[Col1]_d13C_Pafuri;607;Pafuri2015Baobab13C;tree;Pafuri; -22.82246950;  31.31740;  300.0;Africa;South Africa;   999;2009
[ID608]_Zinke_2015_HoutmanAbrolhos_[Col1]_ssta-SrCa-por61-90.Hai_Houtman_Abrolhos;608;Zinke_2015_HoutmanAbrolhos;coral;Houtman Abrolhos; -28.46090000; 113.75000;NA;Australasia;Australia;  1795;2010
[ID609]_Zinke_2015_NingalooReef_d18O_[Col1]_ssta-SrCa-por61-90.Ning_Ningaloo_Reef;609;Zinke_2015_NingalooReef_d18O;coral;Ningaloo Reef; -21.86450000; 114.07050;   -2.0;North America;Australia;  1879;2010
[ID610]_Zinke_2015_Rowley_SrCa_[Col1]_ssta-SrCa-por61-90.Rowley_Rowley;610;Zinke_2015_Rowley_SrCa;coral;Rowley; -17.31845000; 119.28450;NA;Australasia;Australia;  1798;2009
[ID611]_Zinke_2015_WestAustralia_SST_recon_[Col1]_ssta-SrCa-por61-90.WA_Western_Australia;611;Zinke_2015_WestAustralia_SST_recon;coral;Western Australia; -22.99025000; 116.66300;NA;Australasia;Australia;  1795;2010
[ID612]_Ifaty-1 d18O Z14_[Col1]_sst-d18OPor.61-90_Ifaty_Reef;612;Ifaty-1 d18O Z14;coral;Ifaty Reef; -23.14296700;  43.58307;   -1.1;Africa;Madagascar;  1660;1994
[ID613]_AUSL037_Australasia-JunaDownsGully.ODonnell.2015_[Col6]_ausl037_Signalfree_2_Juna_Downs_Gully;613;AUSL037_Australasia-JunaDownsGully.ODonnell.2015;tree;Juna Downs Gully; -22.50000000;-118.37000;  230.0;Australasia;Australia;  1762;2012
[ID614]_Australasia-SWupdate.Allen.2015_[Col6]_SWupdate_CLH_ver1_Signalfree_2_CTP_West_Tasmania;614;Australasia-SWupdate.Allen.2015;tree;CTP West Tasmania; -42.00000000; 146.00000;  600.0;Australasia;Australia;  1525;2000
[ID615]_Austalasia-TheWalls.Allen.2011_[Col6]_TheWalls1_Signalfree_2_The_Walls_of_Jerusalem;615;Austalasia-TheWalls.Allen.2011;tree;The Walls of Jerusalem; -42.00000000; 146.00000; 1230.0;Australasia;Australia;  1376;2004
[IDP4840]_Ocean2kHR-IndianMayotteZinke20082009_[Col1]_Sr_Ca;P4840;Ocean2kHR-IndianMayotteZinke20082009;coral;Mayotte; -12.65000000;  45.10000;NA;NA;NA;  1881;1994
[IDP4842]_Ocean2kHR-IndianMentawaiAbram2008_[Col1]_d18O;P4842;Ocean2kHR-IndianMentawaiAbram2008;coral;Mentawai Islands;  -0.13000000;  98.52000;NA;NA;NA;  1858;1997
[IDP4835]_Ocean2kHR-IndianKenyaNakamura2009_[Col1]_d18O;P4835;Ocean2kHR-IndianKenyaNakamura2009;coral;Malindi;  -3.20000000;  40.10000;NA;NA;NA;  1886;2002
[IDP4863]_Ocean2kHR-IndianWAGrowthClerkeCooper2012_[Col1]_calcificationRate;P4863;Ocean2kHR-IndianWAGrowthClerkeCooper2012;coral;Clerke Reef, Rowley Shoals; -17.26670000; 119.36670;NA;NA;NA;  1900;2010
[IDP4873]_Ocean2kHR-IndianWAGrowthImperieuseCooper2012_[Col1]_calcificationRate;P4873;Ocean2kHR-IndianWAGrowthImperieuseCooper2012;coral;Imperieuse, Rowley Shoals; -17.51670000; 118.96670;NA;NA;NA;  1900;2010
[IDP4854]_Ocean2kHR-IndianWAGrowthBundegiCooper2012_[Col1]_calcificationRate;P4854;Ocean2kHR-IndianWAGrowthBundegiCooper2012;coral;Bundegi reef, Ningaloo; -21.83330000; 114.18330;NA;NA;NA;  1900;2008
[IDP4886]_Ocean2kHR-IndianWAGrowthTantabiddiCooper2012_[Col1]_calcificationRate;P4886;Ocean2kHR-IndianWAGrowthTantabiddiCooper2012;coral;Tantabiddi reef, Ningaloo; -21.90000000; 113.96670;NA;NA;NA;  1900;2010
[IDP4866]_Ocean2kHR-IndianWAGrowthCoralBayCooper2012_[Col1]_calcificationRate;P4866;Ocean2kHR-IndianWAGrowthCoralBayCooper2012;coral;Coral Bay, Ningaloo; -23.03330000; 113.81670;NA;NA;NA;  1900;2010
[IDP4851]_Ocean2kHR-IndianWAGrowthAbrolhosCooper2012_[Col1]_calcificationRate;P4851;Ocean2kHR-IndianWAGrowthAbrolhosCooper2012;coral;Houtman Abrolhos Islands; -28.46670000; 113.76670;NA;NA;NA;  1900;2010
[IDP4923]_Ocean2kHR-PacificLinsley2006Rarotongad18O99_[Col1]_d18O;P4923;Ocean2kHR-PacificLinsley2006Rarotongad18O99;coral;Rarotonga; -21.23780000;-159.82780;NA;NA;NA;  1906;1999
[IDP4909]_Ocean2kHR-PacificGorman2012Vanuatu_[Col1]_d18O;P4909;Ocean2kHR-PacificGorman2012Vanuatu;coral;Vanuatu; -15.94000000; 166.04000;NA;NA;NA;  1842;2007
[IDP4903]_Ocean2kHR-PacificGBRDruffel1999_[Col1]_d18O;P4903;Ocean2kHR-PacificGBRDruffel1999;coral;Abraham Reef; -22.10000000; 153.00000;NA;NA;NA;  1638;1983
[IDP4890]_Ocean2kHR-PacificBunakenCharles2003_[Col1]_d18O;P4890;Ocean2kHR-PacificBunakenCharles2003;coral;Bunaken Island;  -1.50000000; 124.83300;NA;NA;NA;  1860;1990
[IDP4934]_Ocean2kHR-PacificPNGTudhope1995_[Col1]_d18O;P4934;Ocean2kHR-PacificPNGTudhope1995;coral;Madang Lagoon, Papua New Guinea;  -5.22000000; 145.82000;NA;NA;NA;  1922;1991
[IDP4947]_Ocean2kHR-PacificVanuatuKilbourne2004_[Col1]_d18O;P4947;Ocean2kHR-PacificVanuatuKilbourne2004;coral;Malo Channel, Espiritu Santo Island, Vanuatu; -15.70000000; 167.20000;NA;NA;NA;  1928;1992
[IDP4948]_Ocean2kHR-PacificVanuatuKilbourne2004_[Col1]_Sr_Ca;P4948;Ocean2kHR-PacificVanuatuKilbourne2004;coral;Malo Channel, Espiritu Santo Island, Vanuatu; -15.70000000; 167.20000;NA;NA;NA;  1928;1992
[IDP4928]_Ocean2kHR-PacificNauruGuilderson1999_[Col1]_d18O;P4928;Ocean2kHR-PacificNauruGuilderson1999;coral;Nauru;  -0.53296000; 166.92830;NA;NA;NA;  1897;1995
[IDP4905]_Ocean2kHR-PacificGBRWei2009_[Col1]_d18O;P4905;Ocean2kHR-PacificGBRWei2009;coral;GBR; -16.71670000; 146.03330;NA;NA;NA;  1807;2004
[IDP1]_Africa-ColdAirCave.Sundqvist.2013_[Col1]_temperature;P1;Africa-ColdAirCave.Sundqvist.2013;speleothem;NA; -24.00000000;  29.18000;NA;NA;NA;  1635;1992
[IDP354]_Asia-MUNATG_[Col1]_trsgi;P354;Asia-MUNATG;tree;NA;  -5.50000000; 123.00000;NA;NA;NA;  1565;2005
[IDP60]_Ant-WDC06A.Steig.2013_[Col1]_d18O;P60;Ant-WDC06A.Steig.2013;ice core;WDC06A; -79.46000000;-112.09000;NA;NA;NA;     1;1583
[IDP38]_Ant-TaylorDome.Steig.2000_[Col1]_d18O;P38;Ant-TaylorDome.Steig.2000;ice core;Taylor Dome; -77.78000000; 158.72000;NA;NA;NA;   -26;1937
[IDP4982]_SAm-LagunaEscondida.Elbert.2013_[Col1]_temperature;P4982;SAm-LagunaEscondida.Elbert.2013;lake sediment;Laguna Escondida; -45.51670000; -71.81670;NA;NA;NA;   400;2008
[IDP4823]_Ocean2kHR-IndianAbrolhosKuhnert1999_[Col1]_d13C;P4823;Ocean2kHR-IndianAbrolhosKuhnert1999;coral;Houtman Abrolhos; -28.47000000; 113.77000;NA;NA;NA;  1794;1994
[IDP4930]_Ocean2kHR-PacificNewCaledoniaDelong2012_[Col1]_Sr_Ca;P4930;Ocean2kHR-PacificNewCaledoniaDelong2012;coral;Amedee Island; -22.47500000; 166.46670;NA;NA;NA;  1648;1999
[IDP4983]_SAm-QuelccayaIce.Thompson.2013_[Col1]_d18OiceSMOW;P4983;SAm-QuelccayaIce.Thompson.2013;ice core;Quelccaya Ice Cap; -13.93330000; -70.83330;NA;NA;NA;   226;2009
[IDP4984]_SAm-QuelccayaIceThompson2013_[Col1]_iceacc_m;P4984;SAm-QuelccayaIceThompson2013;glacier ice;Quelccaya Ice Cap; -13.93330000; -70.83330;NA;NA;NA;   226;2009
[IDP28]_Ant-MillIslandBoreholeReconstruction_[Col1]_Temperature;P28;Ant-MillIslandBoreholeReconstruction;borehole;Mill Island; -65.55720000; 100.78650;NA;NA;NA;  1921;2011
[IDP58]_Ant-WDC05ABoreholeTreconstruction_[Col1]_Temperature;P58;Ant-WDC05ABoreholeTreconstruction;borehole;WAIS-Divide; -79.46300000;-112.12500;NA;NA;NA;     9;2007
[IDP486]_Aus-Duckhole.Saunders.2013_[Col1]_RABD660_670_TotalChlorin2__waterContent;P486;Aus-Duckhole.Saunders.2013;lake sediment;Duckhole Lake; -43.36460000; 146.87490;NA;NA;NA;  1140;2001
[IDP4690]_O2kLR-PiscoCentra.Gutierrez.2011_[Col1]_temp_C;P4690;O2kLR-PiscoCentra.Gutierrez.2011;marine sediment;Pisco, Central Peru; -14.13000000; -76.50000; -299.0;NA;NA;  1737;2003
[ID616]_SouthAmerica-ValidiviaCity.Gonzalez-Reyes.2013_[Col1]_Annual_JanDec_Pp_Valdivia_city;616;SouthAmerica-ValidiviaCity.Gonzalez-Reyes.2013;early instrumental & tree;Valdivia city; -39.81958800; -73.24521;    7.0;South America;Chile;  1853;2005
[ID617]_SouthAmerica-BiobioPueloMaule.Munoz.2016_[Col1]_biobio_Biobio_Puelo_Maule_Rivers;617;SouthAmerica-BiobioPueloMaule.Munoz.2016;tree;Biobio Puelo Maule Rivers; -38.00000000; -72.00000;NA;South America;Chile;  1500;2003
[ID617]_SouthAmerica-BiobioPueloMaule.Munoz.2016_[Col2]_maule_Biobio_Puelo_Maule_Rivers;617;SouthAmerica-BiobioPueloMaule.Munoz.2016;tree;Biobio Puelo Maule Rivers; -38.00000000; -72.00000;NA;South America;Chile;  1500;2003
[ID617]_SouthAmerica-BiobioPueloMaule.Munoz.2016_[Col3]_puelo_Biobio_Puelo_Maule_Rivers;617;SouthAmerica-BiobioPueloMaule.Munoz.2016;tree;Biobio Puelo Maule Rivers; -38.00000000; -72.00000;NA;South America;Chile;  1500;2003
[ID618]_SouthAmerica-RioBermejo.Prieto.2015_[Col1]_cuantit_Rio_Bermejo;618;SouthAmerica-RioBermejo.Prieto.2015;documents;Rio Bermejo; -24.00000000; -63.00000;  200.0;South America;Argentina;  1599;2008
Villalba2012_Austrocedrus;NA;Villalba2012_Austrocedrus;tree;Villalba2012_Austrocedrus; -40.00000000; -70.00000;NA;South America;NA;NA;NA
Villalba2012_Araucaria;NA;Villalba2012_Araucaria;tree;Villalba2012_Araucaria; -39.00000000; -70.00000;NA;South America;NA;NA;NA
Villalba2012_Halocarpus;NA;Villalba2012_Halocarpus;tree;Villalba2012_Halocarpus; -42.00000000; 172.00000;NA;Australasia;NA;NA;NA
Villalba2012_Nothofagus;NA;Villalba2012_Nothofagus;tree;Villalba2012_Nothofagus; -55.00000000; -68.00000;NA;South America;NA;NA;NA
Villalba2012_Lagarostrobos;NA;Villalba2012_Lagarostrobos;tree;Villalba2012_Lagarostrobos; -42.00000000; 147.00000;NA;Australasia;NA;NA;NA
Villalba2012_Phyllocladus;NA;Villalba2012_Phyllocladus;tree;Villalba2012_Phyllocladus; -42.00000000; 147.00000;NA;Australasia;NA;NA;NA
EDC Dome C;1.01;EDC Dome C;ice core;EDC Dome C; -75.10000000; 123.39000; 3233.0;East Antarctic Plateau;Antarctica;NA;NA
Vostok composite VRS13 ( a stack of 15 individual isotopic records from snow pits and shallow cores recovered in the vicinity of Vostok Station);1.02;Vostok composite VRS13 ( a stack of 15 individual isotopic records from snow pits and shallow cores recovered in the vicinity of Vostok Station);ice core;Vostok composite VRS13 ( a stack of 15 individual isotopic records from snow pits and shallow cores recovered in the vicinity of Vostok Station); -78.47000000; 106.83000; 3488.0;East Antarctic Plateau;Antarctica;NA;NA
B31Site DML07;1.03;B31Site DML07;ice core;B31Site DML07; -75.58000000;  -3.43000; 2680.0;East Antarctic Plateau;Antarctica;NA;NA
B32Site DML05;1.04;B32Site DML05;ice core;B32Site DML05; -75.00000000;  -0.01000; 2892.0;East Antarctic Plateau;Antarctica;NA;NA
B33Site DML17;1.05;B33Site DML17;ice core;B33Site DML17; -75.17000000;   6.50000; 3160.0;East Antarctic Plateau;Antarctica;NA;NA
Eastern DML L89 (DML Ice divide traverse L);1.07;Eastern DML L89 (DML Ice divide traverse L);ice core;Eastern DML L89 (DML Ice divide traverse L); -74.65000000;  12.80000; 3406.0;East Antarctic Plateau;Antarctica;NA;NA
DML Plateau Amundsenisen FB96DML01;1.08;DML Plateau Amundsenisen FB96DML01;ice core;DML Plateau Amundsenisen FB96DML01; -74.86000000;  -2.55000; 2817.0;East Antarctic Plateau;Antarctica;NA;NA
DML Plateau Amundsenisen FB96DML02;1.09;DML Plateau Amundsenisen FB96DML02;ice core;DML Plateau Amundsenisen FB96DML02; -74.97000000;  -3.92000; 3014.0;East Antarctic Plateau;Antarctica;NA;NA
DML Plateau Amundsenisen FB97DML03;1.1;DML Plateau Amundsenisen FB97DML03;ice core;DML Plateau Amundsenisen FB97DML03; -74.49000000;   1.97000; 2843.0;East Antarctic Plateau;Antarctica;NA;NA
DML Plateau Amundsenisen FB97DML04;1.11;DML Plateau Amundsenisen FB97DML04;ice core;DML Plateau Amundsenisen FB97DML04; -74.41000000;   7.22000; 3161.0;East Antarctic Plateau;Antarctica;NA;NA
DML Plateau Amundsenisen FB97DML05;1.12;DML Plateau Amundsenisen FB97DML05;ice core;DML Plateau Amundsenisen FB97DML05; -75.00000000;   0.01000; 2882.0;East Antarctic Plateau;Antarctica;NA;NA
DML Plateau Amundsenisen FB97DML06;1.13;DML Plateau Amundsenisen FB97DML06;ice core;DML Plateau Amundsenisen FB97DML06; -75.00000000;   8.01000; 3246.0;East Antarctic Plateau;Antarctica;NA;NA
DML Plateau Amundsenisen FB97DML07;1.14;DML Plateau Amundsenisen FB97DML07;ice core;DML Plateau Amundsenisen FB97DML07; -74.59000000;  -3.44000; 2669.0;East Antarctic Plateau;Antarctica;NA;NA
DML Plateau Amundsenisen FB97DML08;1.15;DML Plateau Amundsenisen FB97DML08;ice core;DML Plateau Amundsenisen FB97DML08; -75.75000000;   3.29000; 2962.0;East Antarctic Plateau;Antarctica;NA;NA
DML Plateau Amundsenisen FB97DML09;1.16;DML Plateau Amundsenisen FB97DML09;ice core;DML Plateau Amundsenisen FB97DML09; -75.93000000;   7.22000; 3145.0;East Antarctic Plateau;Antarctica;NA;NA
DML Plateau Amundsenisen FB97DML10;1.17;DML Plateau Amundsenisen FB97DML10;ice core;DML Plateau Amundsenisen FB97DML10; -75.22000000;  11.35000; 3349.0;East Antarctic Plateau;Antarctica;NA;NA
DML Plateau (DML11) FB9803;1.18;DML Plateau (DML11) FB9803;ice core;DML Plateau (DML11) FB9803; -74.85000000;  -8.50000; 2600.0;East Antarctic Plateau;Antarctica;NA;NA
DML Plateau (DML18) FB9804;1.19;DML Plateau (DML18) FB9804;ice core;DML Plateau (DML18) FB9804; -75.25000000;  -6.00000; 2630.0;East Antarctic Plateau;Antarctica;NA;NA
DML Plateau (DML19) FB9805;1.2;DML Plateau (DML19) FB9805;ice core;DML Plateau (DML19) FB9805; -75.17000000;  -1.00000; 2840.0;East Antarctic Plateau;Antarctica;NA;NA
DML Plateau (DML20) FB9808;1.22;DML Plateau (DML20) FB9808;ice core;DML Plateau (DML20) FB9808; -74.75000000;   1.00000; 2860.0;East Antarctic Plateau;Antarctica;NA;NA
DML Plateau (DML03) FB9809;1.23;DML Plateau (DML03) FB9809;ice core;DML Plateau (DML03) FB9809; -74.50000000;   1.96000; 2843.0;East Antarctic Plateau;Antarctica;NA;NA
DML Plateau (DML21) FB9810;1.24;DML Plateau (DML21) FB9810;ice core;DML Plateau (DML21) FB9810; -74.67000000;   4.00000; 2980.0;East Antarctic Plateau;Antarctica;NA;NA
DML Plateau (DML22) FB9811;1.25;DML Plateau (DML22) FB9811;ice core;DML Plateau (DML22) FB9811; -75.08000000;   6.50000; 3160.0;East Antarctic Plateau;Antarctica;NA;NA
DML Plateau (DML23) FB9812;1.26;DML Plateau (DML23) FB9812;ice core;DML Plateau (DML23) FB9812; -75.25000000;   6.50000; 3160.0;East Antarctic Plateau;Antarctica;NA;NA
DML Plateau (DML15) FB9814;1.28;DML Plateau (DML15) FB9814;ice core;DML Plateau (DML15) FB9814; -75.08000000;   2.50000; 2970.0;East Antarctic Plateau;Antarctica;NA;NA
DML Plateau (DML14) FB9815;1.29;DML Plateau (DML14) FB9815;ice core;DML Plateau (DML14) FB9815; -74.96000000;  -1.50000; 2840.0;East Antarctic Plateau;Antarctica;NA;NA
DML Plateau (DML13) FB9816;1.3;DML Plateau (DML13) FB9816;ice core;DML Plateau (DML13) FB9816; -75.00000000;  -4.51000; 2740.0;East Antarctic Plateau;Antarctica;NA;NA
DML Plateau (DML12) FB9817;1.31;DML Plateau (DML12) FB9817;ice core;DML Plateau (DML12) FB9817; -75.00000000;  -6.50000; 2680.0;East Antarctic Plateau;Antarctica;NA;NA
DML Plateau (DML02) SS9813;1.32;DML Plateau (DML02) SS9813;ice core;DML Plateau (DML02) SS9813; -74.97000000;   3.92000; 3014.0;East Antarctic Plateau;Antarctica;NA;NA
US-ITASE-2002-4;1.35;US-ITASE-2002-4;ice core;US-ITASE-2002-4; -86.50000000;-107.99000; 2586.0;East Antarctic Plateau;Antarctica;NA;NA
Plateau Remote;1.36;Plateau Remote;ice core;Plateau Remote; -84.00000000;  43.00000; 3330.0;East Antarctic Plateau;Antarctica;NA;NA
TALDICE -Talos Dome;1.37;TALDICE -Talos Dome;ice core;TALDICE -Talos Dome; -72.82000000; 159.18000; 2315.0;East Antarctic Plateau;Antarctica;NA;NA
TD96 Talos Dome;1.38;TD96 Talos Dome;ice core;TD96 Talos Dome; -72.80000000; 159.06000; 2316.0;East Antarctic Plateau;Antarctica;NA;NA
SPRESSO (South Pole);1.39;SPRESSO (South Pole);ice core;SPRESSO (South Pole); -89.93000000; 144.39000; 2835.0;East Antarctic Plateau;Antarctica;NA;NA
NUS 08-7;1.4;NUS 08-7;ice core;NUS 08-7; -74.12000000;   1.60000; 2673.0;East Antarctic Plateau;Antarctica;NA;NA
NUS 07-1;1.41;NUS 07-1;ice core;NUS 07-1; -73.72000000;   7.94000; 3174.0;East Antarctic Plateau;Antarctica;NA;NA
400th km;1.42;400th km;ice core;400th km; -69.95000000;  95.62000; 2777.0;East Antarctic Plateau;Antarctica;NA;NA
NVFL-1;1.43;NVFL-1;ice core;NVFL-1; -77.11000000;  95.07000; 3775.0;East Antarctic Plateau;Antarctica;NA;NA
PV-10;1.45;PV-10;ice core;PV-10; -72.81000000;  79.93000; 2800.0;East Antarctic Plateau;Antarctica;NA;NA
DSS Law Dome;2.01;DSS Law Dome;ice core;DSS Law Dome; -66.77000000; 112.81000; 1370.0;Wilkes Land coast;Antarctica;NA;NA
105th km;2.02;105th km;ice core;105th km; -67.43000000;  93.38000; 1407.0;Wilkes Land coast;Antarctica;NA;NA
Berkner Island (South) B25;3.01;Berkner Island (South) B25;ice core;Berkner Island (South) B25; -79.57000000; -45.72000;  890.0;Weddel Sea Coast;Antarctica;NA;NA
Gomez;4.01;Gomez;ice core;Gomez; -73.59000000; -70.36000; 1400.0;Antarctic Peninsula;Antarctica;NA;NA
James Ross Island;4.02;James Ross Island;ice core;James Ross Island; -64.20000000; -57.69000; 1542.0;Antarctic Peninsula;Antarctica;NA;NA
Dyer Plateau;4.03;Dyer Plateau;ice core;Dyer Plateau; -70.68000000; -64.87000; 2002.0;Antarctic Peninsula;Antarctica;NA;NA
Bruce Plateau;4.04;Bruce Plateau;ice core;Bruce Plateau; -66.04000000; -64.08000; 1975.5;Antarctic Peninsula;Antarctica;NA;NA
Ferrigno;5.01;Ferrigno;ice core;Ferrigno; -74.57000000; -86.90000; 1354.0;West Antarctic Ice Sheet;Antarctica;NA;NA
Siple Station;5.03;Siple Station;ice core;Siple Station; -75.92000000; -84.25000; 1054.0;West Antarctic Ice Sheet;Antarctica;NA;NA
WDC05A;5.04;WDC05A;ice core;WDC05A; -79.46000000;-112.09000; 1806.0;West Antarctic Ice Sheet;Antarctica;NA;NA
WDC06A;5.05;WDC06A;ice core;WDC06A; -79.46000000;-112.09000; 1766.0;West Antarctic Ice Sheet;Antarctica;NA;NA
US-ITASE-1999-1;5.06;US-ITASE-1999-1;ice core;US-ITASE-1999-1; -80.62000000;-122.63000; 1350.0;West Antarctic Ice Sheet;Antarctica;NA;NA
US-ITASE-2000-1;5.07;US-ITASE-2000-1;ice core;US-ITASE-2000-1; -79.38000000;-111.24000; 1791.0;West Antarctic Ice Sheet;Antarctica;NA;NA
US-ITASE-2000-3;5.09;US-ITASE-2000-3;ice core;US-ITASE-2000-3; -78.43000000;-111.92000; 1742.0;West Antarctic Ice Sheet;Antarctica;NA;NA
US-ITASE-2000-4;5.1;US-ITASE-2000-4;ice core;US-ITASE-2000-4; -78.08000000;-120.08000; 1697.0;West Antarctic Ice Sheet;Antarctica;NA;NA
US-ITASE-2000-5;5.11;US-ITASE-2000-5;ice core;US-ITASE-2000-5; -77.68000000;-124.00000; 1828.0;West Antarctic Ice Sheet;Antarctica;NA;NA
US-ITASE-2000-6;5.12;US-ITASE-2000-6;ice core;US-ITASE-2000-6; -78.33000000;-124.48000; 1639.0;West Antarctic Ice Sheet;Antarctica;NA;NA
US-ITASE-2001-2;5.14;US-ITASE-2001-2;ice core;US-ITASE-2001-2; -82.00000000;-110.01000; 1746.0;West Antarctic Ice Sheet;Antarctica;NA;NA
US-ITASE-2001-3;5.15;US-ITASE-2001-3;ice core;US-ITASE-2001-3; -78.12000000; -95.65000; 1620.0;West Antarctic Ice Sheet;Antarctica;NA;NA
US-ITASE-2001-5;5.17;US-ITASE-2001-5;ice core;US-ITASE-2001-5; -77.06000000; -89.14000; 1239.0;West Antarctic Ice Sheet;Antarctica;NA;NA
US-ITASE-2002-1;5.18;US-ITASE-2002-1;ice core;US-ITASE-2002-1; -82.00000000;-110.01000; 1746.0;West Antarctic Ice Sheet;Antarctica;NA;NA
US-ITASE-2002-2;5.19;US-ITASE-2002-2;ice core;US-ITASE-2002-2; -83.50000000;-104.99000; 1957.0;West Antarctic Ice Sheet;Antarctica;NA;NA
RICE (Rosevelt Island);5.2;RICE (Rosevelt Island);ice core;RICE (Rosevelt Island); -79.36000000;-161.70000;  550.0;West Antarctic Ice Sheet;Antarctica;NA;NA
Hercules N<e9>v<e9>;6.01;Hercules N<e9>v<e9>;ice core;Hercules N<e9>v<e9>; -73.10000000; 165.40000; 2960.0;Victoria Land;Antarctica;NA;NA
VLG;6.02;VLG;ice core;VLG; -77.33000000; 162.53000;  625.0;Victoria Land;Antarctica;NA;NA
Mt Erebus Saddle - MES;6.03;Mt Erebus Saddle - MES;ice core;Mt Erebus Saddle - MES; -77.52000000; 167.68000; 1600.0;Victoria Land;Antarctica;NA;NA
Whitehall Glacier WGH;6.04;Whitehall Glacier WGH;ice core;Whitehall Glacier WGH; -72.90000000; 169.08000;  400.0;Victoria Land;Antarctica;NA;NA
Taylor Dome;6.05;Taylor Dome;ice core;Taylor Dome; -77.78000000; 158.72000; 2365.0;Victoria Land;Antarctica;NA;NA
IND 22B4 Coastal DML;7.01;IND 22B4 Coastal DML;ice core;IND 22B4 Coastal DML; -70.86000000;  11.54000;  500.0;coastal DML;Antarctica;NA;NA
IND 25B5 Coastal DML;7.02;IND 25B5 Coastal DML;ice core;IND 25B5 Coastal DML; -71.34000000;  11.59000; 1300.0;coastal DML;Antarctica;NA;NA
DML Fimbulisen S20;7.09;DML Fimbulisen S20;ice core;DML Fimbulisen S20; -70.25000000;   4.82000;   63.0;coastal DML;Antarctica;NA;NA
DML Fimbulisen S100;7.11;DML Fimbulisen S100;ice core;DML Fimbulisen S100; -70.24000000;   4.80000;   48.0;coastal DML;Antarctica;NA;NA
DML Ritscherflya E91;7.16;DML Ritscherflya E91;ice core;DML Ritscherflya E91; -73.60000000; -12.43000;  700.0;coastal DML;Antarctica;NA;NA
DML Georg-von-Neumayer Station B04;7.2;DML Georg-von-Neumayer Station B04;ice core;DML Georg-von-Neumayer Station B04; -70.62000000;  -8.37000;   28.0;coastal DML;Antarctica;NA;NA
DML Plateau (Kottas Camp) FB9802;7.33;DML Plateau (Kottas Camp) FB9802;ice core;DML Plateau (Kottas Camp) FB9802; -74.21000000;  -9.75000; 1439.0;coastal DML;Antarctica;NA;NA
Quelccaya_PAGES2013;SAm_1;Quelccaya_PAGES2013;Ice core;Quelccaya_PAGES2013; -13.16000000; -70.14000;NA;South America;Peru;NA;NA
Quelccaya_PAGES2013;SAm_2;Quelccaya_PAGES2013;Ice core;Quelccaya_PAGES2013; -13.16000000; -70.14000;NA;South America;Peru;NA;NA
Laguna Aculeo_PAGES2013;SAm_3;Laguna Aculeo_PAGES2013;Lake sediment;Laguna Aculeo_PAGES2013; -33.14000000; -70.15000;NA;South America;Chile;NA;NA
Cariaco Basin_PAGES2013;SAm_4;Cariaco Basin_PAGES2013;Marine Sediment;Cariaco Basin_PAGES2013;   9.88000000; -64.13000;NA;South America;Venezuela;NA;NA
CAN composite 6_PAGES2013;SAm_5;CAN composite 6_PAGES2013;Tree ring;CAN composite 6_PAGES2013; -38.08000000; -71.08000;NA;South America;Chile;NA;NA
CAN composite 11_PAGES2013;SAm_6;CAN composite 11_PAGES2013;Tree ring;CAN composite 11_PAGES2013; -40.10000000; -72.05000;NA;South America;Chile;NA;NA
Santa Lucia_PAGES2013;SAm_7;Santa Lucia_PAGES2013;Tree ring;Santa Lucia_PAGES2013; -43.00000000; -72.08000;NA;South America;Chile;NA;NA
CAN composite 9_PAGES2013;SAm_8;CAN composite 9_PAGES2013;Tree ring;CAN composite 9_PAGES2013; -39.06000000; -71.04000;NA;South America;Argentina;NA;NA
CAN composite 24_PAGES2013;SAm_9;CAN composite 24_PAGES2013;Tree ring;CAN composite 24_PAGES2013; -42.08000000; -71.06000;NA;South America;Argentina;NA;NA
CAN composite 4_PAGES2013;SAm_10;CAN composite 4_PAGES2013;Tree ring;CAN composite 4_PAGES2013; -39.00000000; -71.08000;NA;South America;Argentina;NA;NA
CAN composite 2_PAGES2013;SAm_11;CAN composite 2_PAGES2013;Tree ring;CAN composite 2_PAGES2013; -37.14000000; -71.00000;NA;South America;Argentina;NA;NA
CAN composite 31_PAGES2013;SAm_12;CAN composite 31_PAGES2013;Tree ring;CAN composite 31_PAGES2013; -39.03000000; -71.05000;NA;South America;Argentina;NA;NA
Glaciar Frias_PAGES2013;SAm_13;Glaciar Frias_PAGES2013;Tree ring;Glaciar Frias_PAGES2013; -41.20000000; -71.90000;NA;South America;Chile;NA;NA
NWA composite 2_PAGES2013;SAm_14;NWA composite 2_PAGES2013;Tree ring;NWA composite 2_PAGES2013; -24.00000000; -65.00000;NA;South America;Argentina;NA;NA
SAN composite 2_PAGES2013;SAm_15;SAN composite 2_PAGES2013;Tree ring;SAN composite 2_PAGES2013; -54.20000000; -68.70000;NA;South America;Chile;NA;NA
CAN composite 16_PAGES2013;SAm_16;CAN composite 16_PAGES2013;Tree ring;CAN composite 16_PAGES2013; -41.02000000; -71.13000;NA;South America;Argentina;NA;NA
CAN composite 19_PAGES2013;SAm_17;CAN composite 19_PAGES2013;Tree ring;CAN composite 19_PAGES2013; -41.03000000; -72.04000;NA;South America;Chile;NA;NA
CAN composite 14_PAGES2013;SAm_18;CAN composite 14_PAGES2013;Tree ring;CAN composite 14_PAGES2013; -41.02000000; -71.13000;NA;South America;Argentina;NA;NA
Vilches_PAGES2013;SAm_19;Vilches_PAGES2013;Tree ring;Vilches_PAGES2013; -35.10000000; -71.01000;NA;South America;Chile;NA;NA
Campinas DJF_PAGES2013;SAm_20;Campinas DJF_PAGES2013;Instrumental;Campinas DJF_PAGES2013; -23.00000000; -47.10000;NA;South America;Brasil;NA;NA
Tucuman DJF_PAGES2013;SAm_21;Tucuman DJF_PAGES2013;Instrumental;Tucuman DJF_PAGES2013; -26.80000000; -65.12000;NA;South America;Argentina;NA;NA
Corrientes DJF_PAGES2013;SAm_22;Corrientes DJF_PAGES2013;Instrumental;Corrientes DJF_PAGES2013; -27.45000000; -58.75000;NA;South America;Argentina;NA;NA
Rio Gallegos DJF_PAGES2013;SAm_23;Rio Gallegos DJF_PAGES2013;Instrumental;Rio Gallegos DJF_PAGES2013; -52.00000000; -69.45000;NA;South America;Argentina;NA;NA
